STARLINK-4147           
1 53256U 22086Q   22228.25002315  .00016207  00000+0  11954-3 0  9991
2 53256  53.2192 290.9253 0002657  12.9717 160.8879 15.73224460  4201
STARLINK-4144           
1 53257U 22086R   22228.25002315  .00027044  00000+0  19667-3 0  9992
2 53257  53.2188 290.9199 0002226  19.8115 156.3996 15.73177361  4203
STARLINK-4127           
1 53258U 22086S   22228.25002315  .00029023  00000+0  21043-3 0  9993
2 53258  53.2188 290.9220 0002276  18.4477 156.6098 15.73205984  4209
STARLINK-4140           
1 53259U 22086T   22228.25002315  .00027527  00000+0  19984-3 0  9992
2 53259  53.2191 290.9197 0002269  20.9467 155.8863 15.73206656  4204
STARLINK-4136           
1 53260U 22086U   22227.91667824  .00027188  00000+0  19774-3 0  9998
2 53260  53.2185 292.5685 0002307  19.4290  67.2490 15.73171209  1304
STARLINK-4062           
1 53261U 22086V   22228.25002315  .00029502  00000+0  21370-3 0  9992
2 53261  53.2188 290.9159 0002828  19.6093 158.9678 15.73217872  4202
STARLINK-4085           
1 53262U 22086W   22228.25002315  .00028004  00000+0  20348-3 0  9993
2 53262  53.2186 290.9163 0002603  23.4768 153.9427 15.73175770  4206
STARLINK-4130           
1 53263U 22086X   22228.25002315 -.00055353  00000+0 -39181-3 0  9998
2 53263  53.2177 290.9154 0002214  25.5454 153.7201 15.73241662  4202
STARLINK-3950           
1 53264U 22086Y   22228.58334491  .00078181  00000+0  55676-3 0  9997
2 53264  53.2184 289.2678 0002310  21.6191 245.2565 15.73178746  4252
STARLINK-4097           
1 53265U 22086Z   22228.25002315  .00029676  00000+0  21502-3 0  9995
2 53265  53.2190 290.9129 0002418  16.6454 163.7743 15.73209036  4209
STARLINK-4058           
1 53266U 22086AA  22228.25002315  .00028296  00000+0  20526-3 0  9998
2 53266  53.2188 290.9126 0002453  16.5670 163.2321 15.73208742  4202
STARLINK-4060           
1 53267U 22086AB  22228.25002315 -.00066806  00000+0 -47427-3 0  9999
2 53267  53.2189 290.9085 0002626  24.5504 157.6656 15.73248093  4206
STARLINK-4109           
1 53268U 22086AC  22228.25002315  .00028374  00000+0  20604-3 0  9994
2 53268  53.2186 290.9092 0002449  25.3793 155.6296 15.73182974  4207
STARLINK-4057           
1 53269U 22086AD  22228.58334491  .00078463  00000+0  55901-3 0  9996
2 53269  53.2187 289.2589 0002271  23.4510 248.8357 15.73167306  4250
STARLINK-4069           
1 53271U 22086AF  22228.58334491  .00012437  00000+0  92838-4 0  9999
2 53271  53.2187 289.2559 0002643  22.6012 250.8429 15.73215993  4250
STARLINK-4122           
1 53272U 22086AG  22228.25002315 -.00081818  00000+0 -58254-3 0  9995
2 53272  53.2188 290.9065 0002856  20.5554 162.2769 15.73260374  4208
STARLINK-4051           
1 53273U 22086AH  22228.25002315  .00029858  00000+0  21653-3 0  9993
2 53273  53.2186 290.9005 0001824  31.4477 154.3075 15.73185679  4206
STARLINK-4050           
1 53274U 22086AJ  22227.91667824  .00027548  00000+0  20008-3 0  9995
2 53274  53.2187 292.5532 0002072  25.6621  69.3508 15.73196375  4158
STARLINK-4179           
1 53275U 22086AK  22228.25002315  .00028680  00000+0  20822-3 0  9994
2 53275  53.2187 290.8992 0002911  18.0655 168.2982 15.73180248  4208
STARLINK-4174           
1 53276U 22086AL  22228.25002315  .00029511  00000+0  21383-3 0  9992
2 53276  53.2192 290.9038 0002552  20.8131 164.3564 15.73210909  4209
STARLINK-4178           
1 53277U 22086AM  22227.91667824  .00025553  00000+0  18596-3 0  9991
2 53277  53.2185 292.5452 0002258  36.4555  62.7136 15.73195579  4151
STARLINK-4180           
1 53278U 22086AN  22227.91667824  .00023493  00000+0  17150-3 0  9998
2 53278  53.2184 292.5465 0002163  32.8961  65.0968 15.73177161  4157
STARLINK-4169           
1 53280U 22086AQ  22228.25002315  .00029001  00000+0  21044-3 0  9995
2 53280  53.2187 290.8967 0002051  25.2884 162.2791 15.73187734  4204
STARLINK-4182           
1 53281U 22086AR  22228.25002315  .00030455  00000+0  22051-3 0  9990
2 53281  53.2187 290.8927 0002585  24.6975 165.2443 15.73210495  4205
STARLINK-4164           
1 53282U 22086AS  22228.25002315 -.00067949  00000+0 -48258-3 0  9998
2 53282  53.2188 290.8952 0002046  34.6427 154.1366 15.73248279  4202
STARLINK-4175           
1 53283U 22086AT  22228.25002315  .00030197  00000+0  21909-3 0  9996
2 53283  53.2191 290.8931 0001916  22.3787 168.1927 15.73168203  4208
STARLINK-4172           
1 53284U 22086AU  22228.25002315  .00030708  00000+0  22236-3 0  9999
2 53284  53.2186 290.8930 0002021  24.6649 164.7165 15.73204715  4207
STARLINK-4173           
1 53285U 22086AV  22228.25002315  .00030888  00000+0  22358-3 0  9994
2 53285  53.2190 290.8892 0001909  25.0365 167.3035 15.73210394  4209
STARLINK-4165           
1 53286U 22086AW  22228.25002315  .00026596  00000+0  19334-3 0  9996
2 53286  53.2185 290.8894 0001941  38.9901 152.1519 15.73196484  4203
STARLINK-4107           
1 53287U 22086AX  22228.25002315 -.00054792  00000+0 -38765-3 0  9997
2 53287  53.2172 290.8866 0002066  17.5501 175.9995 15.73249355  4204
STARLINK-4162           
1 53288U 22086AY  22228.25002315 -.00041988  00000+0 -29579-3 0  9994
2 53288  53.2182 290.8869 0001992  30.7662 160.9808 15.73232559  4206
STARLINK-4176           
1 53289U 22086AZ  22228.25002315  .00030461  00000+0  22049-3 0  9992
2 53289  53.2186 290.8834 0001911  24.7715 169.9511 15.73218600  4207
STARLINK-4149           
1 53290U 22086BA  22228.25002315 -.00068472  00000+0 -48627-3 0  9999
2 53290  53.2184 290.8855 0001945  21.9751 170.9688 15.73252723  4207
STARLINK-4166           
1 53291U 22086BB  22228.25002315  .00029989  00000+0  21741-3 0  9996
2 53291  53.2172 290.8831 0001912  27.8554 167.4593 15.73190186  4209
STARLINK-4159           
1 53292U 22086BC  22228.25002315  .00030282  00000+0  21926-3 0  9990
2 53292  53.2184 290.8834 0002022  31.9450 162.1662 15.73213991  4209
STARLINK-4148           
1 53293U 22086BD  22228.25002315  .00030840  00000+0  22326-3 0  9996
2 53293  53.2188 290.8822 0002011  33.0782 162.7848 15.73208528  4202
STARLINK-4146           
1 53294U 22086BE  22228.25002315  .00031424  00000+0  22736-3 0  9991
2 53294  53.2183 290.8785 0001806  25.0940 171.4362 15.73211518  4205
FALCON 9 DEB            
1 53295U 22086BF  22227.38001904  .19938335  12550-4  26920-3 0  9992
2 53295  53.2073 290.5965 0003798 139.0964 221.0374 16.49046904  3523
FALCON 9 DEB            
1 53296U 22086BG  22227.56278487  .08908309  12397-4  30632-3 0  9995
2 53296  53.1963 289.5956 0008735 113.5236 246.6733 16.43861162  3554
FALCON 9 DEB            
1 53298U 22086BJ  22226.67575576  .08652741  12464-4  25538-3 0  9997
2 53298  53.2159 293.9991 0006407  99.0039 261.1738 16.44841498  3418
2022-087A               
1 53299U 22087A   22228.50254841  .00003759  00000+0  17125-3 0  9994
2 53299  97.4047 302.6051 0014514 207.8801 277.3423 15.21198482  3090
2022-087B               
1 53300U 22087B   22228.49762424  .00003597  00000+0  16222-3 0  9993
2 53300  97.4042 302.6104 0014431 214.8849 270.7969 15.21569580  3098
2022-087C               
1 53301U 22087C   22228.49685356  .00003418  00000+0  15402-3 0  9993
2 53301  97.4037 302.6112 0015196 214.8388 270.8888 15.21624443  3090
2022-087D               
1 53302U 22087D   22228.49352999  .00006870  00000+0  30360-3 0  9993
2 53302  97.4047 302.6183 0014200 221.1427 264.8778 15.21942321  3099
2022-087E               
1 53303U 22087E   22228.49255889  .00004077  00000+0  18128-3 0  9999
2 53303  97.4075 302.6256 0015387 220.1498 265.9506 15.21964749  3095
ZK-1A R/B               
1 53304U 22087F   22228.19481639  .00023104  00000+0  23881-3 0  9995
2 53304  97.2784 302.7866 0173609 239.1598 119.2474 15.48180811  3096
1998-067TQ              
1 53305U 98067TQ  22228.52128497  .00030065  00000+0  50537-3 0  9996
2 53305  51.6424  37.5875 0003304 125.3265 234.8034 15.51488865  4020
1998-067TR              
1 53306U 98067TR  22228.51856845  .00034754  00000+0  57756-3 0  9990
2 53306  51.6424  37.5701 0002828 130.3999 229.7238 15.51735887  4027
1998-067TS              
1 53307U 98067TS  22228.51826816  .00034287  00000+0  56975-3 0  9999
2 53307  51.6421  37.5673 0002815 117.4198 242.7078 15.51745583  4050
RS3S                    
1 53308U 98067TT  22228.51798740  .00033301  00000+0  55363-3 0  9990
2 53308  51.6423  37.5663 0002600 120.8830 239.2415 15.51746644  4083
RS1S                    
1 53309U 98067TU  22228.51742785  .00034101  00000+0  56564-3 0  9992
2 53309  51.6421  37.5617 0003205 137.0980 223.0260 15.51797710  4033
RS5S                    
1 53310U 98067TV  22228.51749937  .00032179  00000+0  53516-3 0  9997
2 53310  51.6425  37.5631 0002895 138.3581 221.7629 15.51754448  4068
RS6S                    
1 53311U 98067TW  22228.51623681  .00037028  00000+0  61077-3 0  9994
2 53311  51.6419  37.5538 0002312 113.6521 246.4711 15.51915506  4084
RS9S                    
1 53312U 98067TX  22228.51655770  .00034551  00000+0  57187-3 0  9994
2 53312  51.6423  37.5559 0003393 139.9972 220.1268 15.51850664  4027
RS12S                   
1 53313U 98067TY  22228.51584034  .00035128  00000+0  58018-3 0  9994
2 53313  51.6423  37.5516 0002903 145.3337 214.7842 15.51903727  4074
2022-088A               
1 53316U 22088A   22227.74392361  .00010207  00000+0  42361-3 0  9996
2 53316  34.9991  16.6103 0006552  56.3151 135.7868 15.23067962  2619
2022-088B               
1 53317U 22088B   22228.49759016  .00025799  00000+0  10078-2 0  9995
2 53317  35.0012  11.7273 0008067  55.7297   8.4367 15.24937814  2733
2022-088C               
1 53318U 22088C   22228.50845133  .00005642  00000+0  23588-3 0  9990
2 53318  35.0000  11.7978 0004894  16.3804  56.0010 15.22947938  2734
2022-088D               
1 53319U 22088D   22228.49575122  .00015108  00000+0  59140-3 0  9998
2 53319  34.9992  11.7063 0008096  69.5998 356.7512 15.24952097  2731
